H1 CPF 01  gfz 2021 07 29 00  7101 terrasarx 
H2 0702601  6201 31698    2021 07 29 00 59 42 2021 08 03 00 00 42   120 1 1  0 0 0
H9
10 0 59428   5742.000000  0    2519973.462   6246622.200   1439558.040
10 0 59428   5862.000000  0    2735907.410   6299070.275    544641.814
10 0 59428   5982.000000  0    2903954.880   6238072.594   -359861.892
10 0 59428   6102.000000  0    3019234.690   6065627.099  -1258037.612
10 0 59428   6222.000000  0    3077851.632   5785772.068  -2134099.477
10 0 59428   6342.000000  0    3076997.908   5404490.987  -2972675.709
10 0 59428   6462.000000  0    3015031.959   4929578.804  -3759084.070
10 0 59428   6582.000000  0    2891531.958   4370473.342  -4479590.422
10 0 59428   6702.000000  0    2707323.729   3738058.875  -5121645.974
10 0 59428   6822.000000  0    2464483.276   3044446.100  -5674099.647
10 0 59428   6942.000000  0    2166314.963   2302733.888  -6127383.184
10 0 59428   7062.000000  0    1817304.700   1526757.813  -6473665.846
10 0 59428   7182.000000  0    1423051.189    730831.823  -6706977.526
10 0 59428   7302.000000  0     990176.229    -70512.671  -6823302.068
10 0 59428   7422.000000  0     526213.405   -862787.609  -6820639.478
10 0 59428   7542.000000  0      39478.902  -1631804.330  -6699034.848
10 0 59428   7662.000000  0    -461073.185  -2363920.019  -6460577.329
10 0 59428   7782.000000  0    -966011.344  -3046274.784  -6109369.982
10 0 59428   7902.000000  0   -1465599.915  -3667015.417  -5651466.042
10 0 59428   8022.000000  0   -1949982.052  -4215500.867  -5094775.081
10 0 59428   8142.000000  0   -2409371.157  -4682488.993  -4448938.772
10 0 59428   8262.000000  0   -2834247.423  -5060299.598  -3725174.425
10 0 59428   8382.000000  0   -3215554.464  -5342948.959  -2936088.734
10 0 59428   8502.000000  0   -3544892.219  -5526253.988  -2095464.680
10 0 59428   8622.000000  0   -3814702.346  -5607902.948  -1218023.529
10 0 59428   8742.000000  0   -4018440.645  -5587489.844   -319165.281
10 0 59428   8862.000000  0   -4150731.249  -5466510.630    585306.986
10 0 59428   8982.000000  0   -4207498.963  -5248320.984   1479472.779
10 0 59428   9102.000000  0   -4186075.870  -4938055.668   2347584.078
10 0 59428   9222.000000  0   -4085278.782  -4542511.437   3174351.433
10 0 59428   9342.000000  0   -3905456.617  -4069997.889   3945220.270
10 0 59428   9462.000000  0   -3648506.135  -3530159.485   4646632.593
10 0 59428   9582.000000  0   -3317855.456  -2933772.613   5266267.248
10 0 59428   9702.000000  0   -2918417.192  -2292524.927   5793254.314
10 0 59428   9822.000000  0   -2456512.190  -1618782.430   6218362.141
10 0 59428   9942.000000  0   -1939765.963   -925347.617   6534155.183
10 0 59428  10062.000000  0   -1376978.058   -225212.359   6735118.704
10 0 59428  10182.000000  0    -777969.135    468685.749   6817746.583
10 0 59428  10302.000000  0    -153410.024   1143700.820   6780598.739
10 0 59428  10422.000000  0     485368.055   1787708.724   6624325.134
10 0 59428  10542.000000  0    1126578.734   2389324.887   6351654.988
10 0 59428  10662.000000  0    1758197.139   2938105.235   5967351.394
10 0 59428  10782.000000  0    2368184.528   3424728.863   5478133.894
10 0 59428  10902.000000  0    2944718.783   3841160.442   4892567.919
10 0 59428  11022.000000  0    3476426.461   4180787.544   4220919.472
10 0 59428  11142.000000  0    3952608.803   4438529.428   3474979.886
10 0 59428  11262.000000  0    4363462.294   4610919.334   2667863.335
10 0 59428  11382.000000  0    4700285.859   4696152.411   1813772.723
10 0 59428  11502.000000  0    4955665.776   4694100.930    927746.951
10 0 59428  11622.000000  0    5123641.099   4606295.484     25389.774
10 0 59428  11742.000000  0    5199838.312   4435871.045   -877415.011
10 0 59428  11862.000000  0    5181573.378   4187480.199  -1764791.550
10 0 59428  11982.000000  0    5067920.887   3867176.462  -2621158.435
10 0 59428  12102.000000  0    4859747.680   3482270.436  -3431507.984
10 0 59428  12222.000000  0    4559709.923   3041163.742  -4181672.075
10 0 59428  12342.000000  0    4172214.505   2553164.401  -4858569.716
10 0 59428  12462.000000  0    3703346.946   2028287.580  -5450430.505
10 0 59428  12582.000000  0    3160768.138   1477048.316  -5946991.353
10 0 59428  12702.000000  0    2553581.767    910250.804  -6339664.532
10 0 59428  12822.000000  0    1892176.357    338778.055  -6621674.242
10 0 59428  12942.000000  0    1188046.712   -226613.320  -6788162.178
10 0 59428  13062.000000  0     453595.557   -775491.577  -6836264.134
10 0 59428  13182.000000  0    -298082.418  -1297937.920  -6765152.429
10 0 59428  13302.000000  0   -1053427.743  -1784720.349  -6576047.937
10 0 59428  13422.000000  0   -1798654.979  -2227453.129  -6272202.552
10 0 59428  13542.000000  0   -2519998.868  -2618739.508  -5858848.827
10 0 59428  13662.000000  0   -3203963.511  -2952294.651  -5343119.404
10 0 59428  13782.000000  0   -3837573.755  -3223049.083  -4733936.452
10 0 59428  13902.000000  0   -4408623.591  -3427229.321  -4041868.013
10 0 59428  14022.000000  0   -4905915.314  -3562413.138  -3278954.552
10 0 59428  14142.000000  0   -5319485.839  -3627559.080  -2458507.124
10 0 59428  14262.000000  0   -5640814.225  -3623008.558  -1594878.818
10 0 59428  14382.000000  0   -5863004.468  -3550459.635   -703213.794
10 0 59428  14502.000000  0   -5980939.320  -3412913.091    200821.621
10 0 59428  14622.000000  0   -5991400.798  -3214591.611   1101320.448
10 0 59428  14742.000000  0   -5893152.952  -2960833.613   1982424.723
10 0 59428  14862.000000  0   -5686982.781  -2657963.224   2828614.419
10 0 59428  14982.000000  0   -5375701.038  -2313141.913   3624988.134
10 0 59428  15102.000000  0   -4964102.201  -1934204.579   4357532.997
10 0 59428  15222.000000  0   -4458883.086  -1529483.173   5013374.118
10 0 59428  15342.000000  0   -3868526.050  -1107625.403   5580999.461
10 0 59428  15462.000000  0   -3203149.604   -677411.537   6050459.693
10 0 59428  15582.000000  0   -2474327.315   -247571.787   6413539.232
10 0 59428  15702.000000  0   -1694879.007    173390.381   6663893.587
10 0 59428  15822.000000  0    -878641.147    577364.272   6797153.030
10 0 59428  15942.000000  0     -40220.134    956786.628   6810993.990
10 0 59428  16062.000000  0     805268.609   1304782.323   6705176.738
10 0 59428  16182.000000  0    1642472.176   1615289.009   6481549.407
10 0 59428  16302.000000  0    2456078.036   1883162.895   6144017.222
10 0 59428  16422.000000  0    3231093.778   2104264.241   5698479.188
10 0 59428  16542.000000  0    3953126.079   2275521.903   5152731.018
10 0 59428  16662.000000  0    4608651.321   2394975.549   4516334.423
10 0 59428  16782.000000  0    5185274.611   2461795.741   3800456.447
10 0 59428  16902.000000  0    5671974.947   2476279.852   3017676.657
10 0 59428  17022.000000  0    6059322.773   2439822.762   2181764.459
10 0 59428  17142.000000  0    6339671.071   2354865.660   1307436.099
10 0 59428  17262.000000  0    6507313.702   2224821.501    410089.506
10 0 59428  17382.000000  0    6558604.808   2053979.906   -494475.188
10 0 59428  17502.000000  0    6492035.295   1847393.812  -1390343.425
10 0 59428  17622.000000  0    6308267.599   1610750.608  -2261772.597
10 0 59428  17742.000000  0    6010129.193   1350231.429  -3093476.331
10 0 59428  17862.000000  0    5602560.015   1072361.473  -3870897.730
10 0 59428  17982.000000  0    5092518.799    783856.279  -4580465.303
10 0 59428  18102.000000  0    4488851.002    491468.075  -5209826.497
10 0 59428  18222.000000  0    3802124.151    201835.452  -5748055.314
10 0 59428  18342.000000  0    3044433.963    -78659.925  -6185832.764
10 0 59428  18462.000000  0    2229184.342   -344027.177  -6515597.799
10 0 59428  18582.000000  0    1370847.847   -588788.437  -6731665.746
10 0 59428  18702.000000  0     484710.674   -808087.229  -6830317.470
10 0 59428  18822.000000  0    -413396.623   -997780.791  -6809856.160
10 0 59428  18942.000000  0   -1307375.062  -1154515.479  -6670632.503
10 0 59428  19062.000000  0   -2181139.220  -1275784.706  -6415040.090
10 0 59428  19182.000000  0   -3018900.523  -1359968.216  -6047477.673
10 0 59428  19302.000000  0   -3805446.197  -1406352.504  -5574281.652
10 0 59428  19422.000000  0   -4526414.890  -1415132.522  -5003629.070
10 0 59428  19542.000000  0   -5168561.965  -1387393.639  -4345407.308
10 0 59428  19662.000000  0   -5720008.766  -1325074.370  -3611053.763
10 0 59428  19782.000000  0   -6170472.403  -1230910.407  -2813366.134
10 0 59428  19902.000000  0   -6511469.339  -1108360.513  -1966284.531
10 0 59428  20022.000000  0   -6736487.349   -961515.760  -1084649.662
10 0 59428  20142.000000  0   -6841121.981   -794994.156   -183940.490
10 0 59428  20262.000000  0   -6823171.559   -613821.695    720003.824
10 0 59428  20382.000000  0   -6682688.399   -423304.658   1611269.852
10 0 59428  20502.000000  0   -6421985.037   -228896.260   2474159.249
10 0 59428  20622.000000  0   -6045594.542    -36060.199   3293474.208
10 0 59428  20742.000000  0   -5560185.611    149865.133   4054792.852
10 0 59428  20862.000000  0   -4974435.129    323797.704   4744727.714
10 0 59428  20982.000000  0   -4298862.471    481035.063   5351162.046
10 0 59428  21102.000000  0   -3545630.996    617367.562   5863460.316
10 0 59428  21222.000000  0   -2728320.160    729178.105   6272651.301
10 0 59428  21342.000000  0   -1861673.444    813526.399   6571579.891
10 0 59428  21462.000000  0    -961326.794    868217.456   6755026.473
10 0 59428  21582.000000  0     -43524.053    891851.916   6819791.204
10 0 59428  21702.000000  0     875175.588    883857.502   6764745.653
10 0 59428  21822.000000  0    1778194.981    844501.733   6590851.190
10 0 59428  21942.000000  0    2649236.907    774885.423   6301143.415
10 0 59428  22062.000000  0    3472578.187    676916.799   5900683.337
10 0 59428  22182.000000  0    4233356.063    553266.807   5396473.999
99
